IRIDIUM 63              
1 25286U 98021B   25081.80406300  .00001103  00000+0  36995-3 0  9999
2 25286  86.3951 118.3846 0002254  96.0248 264.1206 14.36436865411441
IRIDIUM 69              
1 25319U 98026A   25081.87276845  .00001471  00000+0  45322-3 0  9999
2 25319  86.3975 131.9033 0001404  21.3179 338.8079 14.40839892410632
IRIDIUM 71              
1 25320U 98026B   25082.09962832  .00001280  00000+0  39217-3 0  9998
2 25320  86.3960 126.5150 0003363  53.5590 306.5919 14.41045023411449
IRIDIUM 73              
1 25344U 98032C   25081.75958697  .00002315  00000+0  57423-3 0  9996
2 25344  86.4355  83.5294 0001794  83.1382 277.0027 14.51531765418026
IRIDIUM 82              
1 25467U 98051A   25081.75180666  .00052767  00000+0  17495-2 0  9996
2 25467  86.3725 152.0670 0092530 263.0105  96.0611 15.26940348410745
